ORBCOMM FM115           
1 41186U 15081H   24145.24791925  .00002006  00000+0  44224-3 0  9996
2 41186  46.9980  86.9090 0000274   3.5146 356.5743 14.60740697450873
ORBCOMM FM108           
1 41187U 15081J   24144.92167797  .00001773  00000+0  43089-3 0  9993
2 41187  47.0022 143.1808 0003496 312.9553  47.1038 14.56647826450015
ORBCOMM FM117           
1 41188U 15081K   24145.36786443  .00000933  00000+0  24460-3 0  9997
2 41188  46.9997 139.9696 0003767 326.6501  33.4146 14.56612305450123
ORBCOMM FM116           
1 41189U 15081L   24145.56251319  .00002138  00000+0  51133-3 0  9995
2 41189  47.0006 228.8701 0000924  57.8094 302.2881 14.56679554448965
